NORAD_CAT_ID,OBJECT_NAME,OBJECT_TYPE,EPOCH,MEAN_MOTION,ECCENTRICITY,INCLINATION,RA_OF_ASC_NODE,ARG_OF_PERICENTER,MEAN_ANOMALY,BSTAR,MEAN_MOTION_DOT,MEAN_MOTION_DDOT,TLE_LINE0,TLE_LINE1,TLE_LINE2,SEMIMAJOR_AXIS,PERIOD,APOGEE,PERIGEE,DECAYED
54059.0,STARLINK-5173,PAYLOAD,2023-02-15 22:58:20,15.08879534,0.0001151,53.2161,321.8664,98.8666,261.2456,0.0039081,0.00062529,0.0,0 STARLINK-5173,1 54059U 22136J   23046.95718165  .00062529  00000-0  39081-2 0  9991,2 54059  53.2161 321.8664 0001151  98.8666 261.2456 15.08879534 18582,6917.76,95.435,540.421,538.828,0.0
54059.0,STARLINK-5173,PAYLOAD,2023-02-16 11:41:25,15.08855894,0.0002016,53.2159,319.4894,47.8159,312.3004,0.0020513,0.00032524,0.0,0 STARLINK-5173,1 54059U 22136J   23047.48710193  .00032524  00000-0  20513-2 0  9995,2 54059  53.2159 319.4894 0002016  47.8159 312.3004 15.08855894 18668,6917.832,95.437,541.091,538.302,0.0
54059.0,STARLINK-5173,PAYLOAD,2023-02-16 21:13:44,15.08823231,0.0001062,53.2166,317.7034,58.3184,301.7912,0.001272,0.00020005,0.0,0 STARLINK-5173,1 54059U 22136J   23047.88454688  .00020005  00000-0  12720-2 0  9995,2 54059  53.2166 317.7034 0001062  58.3184 301.7912 15.08823231 18242,6917.932,95.439,540.531,539.062,0.0
54059.0,STARLINK-5173,PAYLOAD,2023-02-16 22:49:08,15.08828105,0.0001062,53.2167,317.4058,58.8332,301.2764,0.0023794,0.00037771,0.0,0 STARLINK-5173,1 54059U 22136J   23047.95078847  .00037771  00000-0  23794-2 0  9993,2 54059  53.2167 317.4058 0001062  58.8332 301.2764 15.08828105 18735,6917.917,95.438,540.516,539.047,0.0
54059.0,STARLINK-5173,PAYLOAD,2023-02-17 00:24:31,15.08829514,0.0001196,53.217,317.1084,60.7662,299.345,0.0032675,0.00052084,0.0,0 STARLINK-5173,1 54059U 22136J   23048.01703112  .00052084  00000-0  32675-2 0  9993,2 54059  53.2170 317.1084 0001196  60.7662 299.3450 15.08829514 18263,6917.912,95.438,540.605,538.95,0.0
54059.0,STARLINK-5173,PAYLOAD,2023-02-17 17:53:47,15.08842153,0.0001313,53.2163,313.8384,67.3841,292.729,0.0025534,0.00040586,0.0,0 STARLINK-5173,1 54059U 22136J   23048.74568382  .00040586  00000-0  25534-2 0  9991,2 54059  53.2163 313.8384 0001313  67.3841 292.7290 15.08842153 18852,6917.874,95.437,540.647,538.83,0.0
54059.0,STARLINK-5173,PAYLOAD,2023-02-17 21:04:33,15.08822337,0.0001134,53.2166,313.2434,76.9378,283.1741,0.0023296,0.00036964,0.0,0 STARLINK-5173,1 54059U 22136J   23048.87816481  .00036964  00000-0  23296-2 0  9999,2 54059  53.2166 313.2434 0001134  76.9378 283.1741 15.08822337 18393,6917.934,95.439,540.584,539.015,0.0
54059.0,STARLINK-5173,PAYLOAD,2023-02-18 00:15:19,15.08830417,0.0001095,53.217,312.6481,77.9662,282.1453,0.0019569,0.00030985,0.0,0 STARLINK-5173,1 54059U 22136J   23049.01064577  .00030985  00000-0  19569-2 0  9992,2 54059  53.2170 312.6481 0001095  77.9662 282.1453 15.08830417 18898,6917.91,95.438,540.532,539.017,0.0
54059.0,STARLINK-5173,PAYLOAD,2023-02-18 20:55:20,15.08858698,0.0001225,53.2179,308.7809,70.9999,289.1126,0.0010469,0.00016421,0.0,0 STARLINK-5173,1 54059U 22136J   23049.87176302  .00016421  00000-0  10469-2 0  9995,2 54059  53.2179 308.7809 0001225  70.9999 289.1126 15.08858698 19029,6917.823,95.436,540.536,538.841,0.0
54059.0,STARLINK-5173,PAYLOAD,2023-02-19 09:38:24,15.0885926,0.0001138,53.216,306.4053,66.4034,293.7077,0.00041312,6.296e-05,0.0,0 STARLINK-5173,1 54059U 22136J   23050.40167674  .00006296  00000-0  41312-3 0  9999,2 54059  53.2160 306.4053 0001138  66.4034 293.7077 15.08859260 19109,6917.822,95.436,540.474,538.899,0.0
54059.0,STARLINK-5173,PAYLOAD,2023-02-19 23:56:52,15.08855753,0.0001497,53.217,303.7314,75.46,284.6558,0.0002678,3.978e-05,0.0,0 STARLINK-5173,1 54059U 22136J   23050.99783329  .00003978  00000-0  26780-3 0  9990,2 54059  53.2170 303.7314 0001497  75.4600 284.6558 15.08855753 19192,6917.832,95.437,540.733,538.662,0.0
54059.0,STARLINK-5173,PAYLOAD,2023-02-20 09:29:11,15.08852268,0.0001156,53.2157,301.9445,81.9283,278.184,0.00011531,1.548e-05,0.0,0 STARLINK-5173,1 54059U 22136J   23051.39527141  .00001548  00000-0  11531-3 0  9992,2 54059  53.2157 301.9445 0001156  81.9283 278.1840 15.08852268 18776,6917.843,95.437,540.508,538.908,0.0
54059.0,STARLINK-5173,PAYLOAD,2023-02-20 23:47:39,15.08843786,9.69e-05,53.2153,299.2682,86.3742,273.7361,-7.481e-05,-1.478e-05,0.0,0 STARLINK-5173,1 54059U 22136J   23051.99143196 -.00001478  00000-0 -74810-4 0  9996,2 54059  53.2153 299.2682 0000969  86.3742 273.7361 15.08843786 19342,6917.869,95.437,540.404,539.063,0.0
54059.0,STARLINK-5173,PAYLOAD,2023-02-21 12:30:44,15.0884455,0.0001171,53.2139,296.8878,94.575,265.5376,0.00010932,1.453e-05,0.0,0 STARLINK-5173,1 54059U 22136J   23052.52135167  .00001453  00000-0  10932-3 0  9990,2 54059  53.2139 296.8878 0001171  94.5750 265.5376 15.08844550 18942,6917.866,95.437,540.542,538.921,0.0
54059.0,STARLINK-5173,PAYLOAD,2023-02-21 22:03:03,15.08856626,0.0001061,53.2144,295.1042,102.6661,257.445,0.00044212,6.759e-05,0.0,0 STARLINK-5173,1 54059U 22136J   23052.91878698  .00006759  00000-0  44212-3 0  9998,2 54059  53.2144 295.1042 0001061 102.6661 257.4450 15.08856626 19001,6917.83,95.437,540.429,538.961,0.0
54059.0,STARLINK-5173,PAYLOAD,2023-02-22 01:13:49,15.08865418,0.0001056,53.2142,294.5095,106.2074,253.9034,0.00089569,0.00014006,0.0,0 STARLINK-5173,1 54059U 22136J   23053.05126548  .00014006  00000-0  89569-3 0  9992,2 54059  53.2142 294.5095 0001056 106.2074 253.9034 15.08865418 19505,6917.803,95.436,540.398,538.937,0.0
54059.0,STARLINK-5173,PAYLOAD,2023-02-22 10:46:08,15.08834828,0.0001076,53.2149,292.7278,110.2013,249.9095,-0.00025144,-4.287e-05,0.0,0 STARLINK-5173,1 54059U 22136J   23053.44871027 -.00004287  00000-0 -25144-3 0  9995,2 54059  53.2149 292.7278 0001076 110.2013 249.9095 15.08834828 19564,6917.896,95.438,540.506,539.017,0.0
54059.0,STARLINK-5173,PAYLOAD,2023-02-22 12:21:31,15.08839437,0.0001669,53.2145,292.4274,131.8198,228.2937,5.1873e-05,5.38e-06,0.0,0 STARLINK-5173,1 54059U 22136J   23053.51495064  .00000538  00000-0  51873-4 0  9998,2 54059  53.2145 292.4274 0001669 131.8198 228.2937 15.08839437 19098,6917.882,95.438,540.902,538.593,0.0
54059.0,STARLINK-5173,PAYLOAD,2023-02-22 21:53:51,15.08826215,9.58e-05,53.214,290.6433,95.1001,265.01,-0.00017421,-3.058e-05,0.0,0 STARLINK-5173,1 54059U 22136J   23053.91239806 -.00003058  00000-0 -17421-3 0  9994,2 54059  53.2140 290.6433 0000958  95.1001 265.0100 15.08826215 19153,6917.923,95.438,540.45,539.125,0.0
54059.0,STARLINK-5173,PAYLOAD,2023-02-22 23:29:14,15.08829317,9.17e-05,53.2144,290.3461,91.2355,268.8742,-9.0451e-05,-1.726e-05,0.0,0 STARLINK-5173,1 54059U 22136J   23053.97863857 -.00001726  00000-0 -90451-4 0  9994,2 54059  53.2144 290.3461 0000917  91.2355 268.8742 15.08829317 19169,6917.913,95.438,540.412,539.144,0.0
54059.0,STARLINK-5173,PAYLOAD,2023-02-23 15:23:05,15.08848001,9.21e-05,53.2147,287.3731,78.8248,281.2847,0.00034478,5.205e-05,0.0,0 STARLINK-5173,1 54059U 22136J   23054.64103529  .00005205  00000-0  34478-3 0  9992,2 54059  53.2147 287.3731 0000921  78.8248 281.2847 15.08848001 19745,6917.856,95.437,540.358,539.084,0.0
54059.0,STARLINK-5173,PAYLOAD,2023-02-23 21:44:37,15.08859916,9.53e-05,53.2143,286.1841,75.4226,284.6872,0.0007174,0.00011154,0.0,0 STARLINK-5173,1 54059U 22136J   23054.90599258  .00011154  00000-0  71740-3 0  9992,2 54059  53.2143 286.1841 0000953  75.4226 284.6872 15.08859916 19308,6917.82,95.436,540.344,539.025,0.0
54059.0,STARLINK-5173,PAYLOAD,2023-02-24 00:55:23,15.08869711,9.78e-05,53.2144,285.5888,70.9936,289.1162,0.0011683,0.0001837,0.0,0 STARLINK-5173,1 54059U 22136J   23055.03847112  .00018370  00000-0  11683-2 0  9998,2 54059  53.2144 285.5888 0000978  70.9936 289.1162 15.08869711 19809,6917.79,95.436,540.331,538.978,0.0
54059.0,STARLINK-5173,PAYLOAD,2023-02-24 12:03:05,15.08845303,6.93e-05,53.2159,283.5071,103.7223,256.3847,-0.00014445,-2.586e-05,0.0,0 STARLINK-5173,1 54059U 22136J   23055.50215134 -.00002586  00000-0 -14445-3 0  9997,2 54059  53.2159 283.5071 0000693 103.7223 256.3847 15.08845303 19396,6917.864,95.437,540.209,539.25,0.0
54059.0,STARLINK-5173,PAYLOAD,2023-02-24 16:49:15,15.08840054,8.47e-05,53.2148,282.6154,84.357,275.7519,-0.00018407,-3.216e-05,0.0,0 STARLINK-5173,1 54059U 22136J   23055.70087327 -.00003216  00000-0 -18407-3 0  9993,2 54059  53.2148 282.6154 0000847  84.3570 275.7519 15.08840054 19902,6917.88,95.438,540.331,539.159,0.0
54059.0,STARLINK-5173,PAYLOAD,2023-02-24 21:35:24,15.08843533,9.47e-05,53.2145,281.7222,88.0829,272.0272,0.00013266,1.824e-05,0.0,0 STARLINK-5173,1 54059U 22136J   23055.89959298  .00001824  00000-0  13266-3 0  9997,2 54059  53.2145 281.7222 0000947  88.0829 272.0272 15.08843533 19455,6917.87,95.437,540.39,539.079,0.0
54059.0,STARLINK-5173,PAYLOAD,2023-02-25 18:15:26,15.08838075,9.08e-05,53.2148,277.8555,95.7251,264.3845,0.00048677,7.467e-05,0.0,0 STARLINK-5173,1 54059U 22136J   23056.76071930  .00007467  00000-0  48677-3 0  9995,2 54059  53.2148 277.8555 0000908  95.7251 264.3845 15.08838075 20068,6917.886,95.438,540.379,539.123,0.0
54059.0,STARLINK-5173,PAYLOAD,2023-02-25 19:50:49,15.08838593,8.31e-05,53.215,277.5586,93.6571,266.4516,0.00030718,4.604e-05,0.0,0 STARLINK-5173,1 54059U 22136J   23056.82695879  .00004604  00000-0  30718-3 0  9993,2 54059  53.2150 277.5586 0000831  93.6571 266.4516 15.08838593 19598,6917.885,95.438,540.325,539.175,0.0
54059.0,STARLINK-5173,PAYLOAD,2023-02-26 13:20:03,15.08844887,8.4e-05,53.2149,274.2869,95.8489,264.2599,0.00026994,4.012e-05,0.0,0 STARLINK-5173,1 54059U 22136J   23057.55559640  .00004012  00000-0  26994-3 0  9993,2 54059  53.2149 274.2869 0000840  95.8489 264.2599 15.08844887 19709,6917.865,95.437,540.312,539.149,0.0
54059.0,STARLINK-5173,PAYLOAD,2023-02-26 21:16:58,15.08854059,8.82e-05,53.2145,272.8007,92.4843,267.625,0.00042251,6.445e-05,0.0,0 STARLINK-5173,1 54059U 22136J   23057.88679206  .00006445  00000-0  42251-3 0  9996,2 54059  53.2145 272.8007 0000882  92.4843 267.6250 15.08854059 20239,6917.837,95.437,540.313,539.092,0.0
